ZIYUAN 3-02 (ZY 3-02)   
1 41556U 16033A   26174.96479067  .00004347  00000+0  19744-3 0  9997
2 41556  97.3836 250.6092 0012380 264.7641  95.2183 15.21232765559019
