{
 "generated_at": "2026-06-24T08:22:35Z",
 "sources": [
  {
   "name": "CelesTrak",
   "url": "https://celestrak.org/NORAD/elements/",
   "license": "frei verfügbar; Attribution. Ursprünglich USSPACECOM/Space-Track."
  },
  {
   "name": "GCAT (J. McDowell, planet4589.org)",
   "url": "https://planet4589.org/space/gcat/",
   "license": "CC-BY 4.0"
  }
 ],
 "satellites": [
  {
   "norad": 41556,
   "name": "ZIYUAN 3-02 (ZY 3-02)",
   "intl": "2016-033A",
   "group": "resource",
   "gcat": {
    "class": "C",
    "category": "IMG",
    "owner": "GCDX/ZZWYZ",
    "state": "CN"
   },
   "omm": {
    "OBJECT_NAME": "ZIYUAN 3-02 (ZY 3-02)",
    "OBJECT_ID": "2016-033A",
    "EPOCH": "2026-06-23T23:09:17.913888",
    "MEAN_MOTION": 15.21232765,
    "ECCENTRICITY": 0.00123803,
    "INCLINATION": 97.3836,
    "RA_OF_ASC_NODE": 250.6092,
    "ARG_OF_PERICENTER": 264.7641,
    "MEAN_ANOMALY": 95.2183,
    "EPHEMERIS_TYPE": 0,
    "CLASSIFICATION_TYPE": "U",
    "NORAD_CAT_ID": 41556,
    "ELEMENT_SET_NO": 999,
    "REV_AT_EPOCH": 55901,
    "BSTAR": 0.00019743502,
    "MEAN_MOTION_DOT": 0.00004347,
    "MEAN_MOTION_DDOT": 0
   }
  }
 ]
}
